IRIDIUM 26              
1 24903U 97043A   25152.86822556  .00000524  00000+0  16979-3 0  9993
2 24903  86.3943 117.0578 0002434  90.6764 269.4712 14.37134079454549
IRIDIUM 22              
1 24907U 97043E   25152.92476601  .00000456  00000+0  15047-3 0  9999
2 24907  86.3948 120.5599 0002370  87.1391 273.0077 14.35948524454581
DUMMY MASS 1            
1 24925U 97048A   25153.47771764  .00000561  00000+0  59592-4 0  9994
2 24925  86.3341 142.1300 0006312 177.2636 182.8625 14.86975785503183
DUMMY MASS 2            
1 24926U 97048B   25153.50471663  .00000539  00000+0  57419-4 0  9995
2 24926  86.3342 143.7216 0006546 191.6603 168.4471 14.86728070502968
IRIDIUM 29              
1 24944U 97051A   25152.95309244  .00000523  00000+0  17184-3 0  9999
2 24944  86.3959 150.2862 0002222  84.8424 275.3026 14.36455734451082
IRIDIUM 33              
1 24946U 97051C   25152.91821639  .00000338  00000+0  11208-3 0  9999
2 24946  86.3874 149.5596 0009725 119.9694 240.2469 14.34883946450550
IRIDIUM 28              
1 24948U 97051E   25152.93660357  .00000425  00000+0  13576-3 0  9998
2 24948  86.3963 147.8187 0002676  96.8835 263.2667 14.37376384451659
IRIDIUM 36              
1 24967U 97056C   25152.83270898  .00000467  00000+0  14910-3 0  9999
2 24967  86.3992 179.4440 0002588  89.2186 270.9308 14.37598577450018
